IRIDIUM 155             
1 43573U 18061E   21042.54609530  .00000070  00000-0  17816-4 0  9993
2 43573  86.4014 152.3541 0001628 104.3504 255.7872 14.34218312133622
IRIDIUM 154             
1 43574U 18061F   21042.59684344  .00000074  00000-0  19453-4 0  9998
2 43574  86.4019 152.3737 0002282  91.2373 268.9084 14.34218925133687
IRIDIUM 163             
1 43575U 18061G   21042.57781720  .00000075  00000-0  19640-4 0  9992
2 43575  86.4016 152.3563 0002615 104.4520 255.6966 14.34219016133654
IRIDIUM 156             
1 43576U 18061H   21042.55244817  .00000080  00000-0  21527-4 0  9995
2 43576  86.4016 152.3719 0002140 107.2697 252.8733 14.34218299133649
IRIDIUM 164             
1 43577U 18061J   21042.53342395  .00000075  00000-0  19581-4 0  9995
2 43577  86.4017 152.3905 0002358  94.8319 265.3146 14.34218118133682
IRIDIUM 159             
1 43578U 18061K   21042.57146360  .00000077  00000-0  20438-4 0  9999
2 43578  86.4015 152.3524 0002258  93.6844 266.4610 14.34216283133653
IRIDIUM 180             
1 43922U 19002A   21042.50119841  .00000088  00000-0  24374-4 0  9990
2 43922  86.3936  89.2329 0003205  85.3520 274.8041 14.34216632109258
IRIDIUM 176             
1 43923U 19002B   21042.39834096  .00000149  00000-0  19674-4 0  9999
2 43923  86.6071  89.3078 0002497  88.8203 271.3301 14.72251769112080
IRIDIUM 168             
1 43924U 19002C   21042.56463206  .00000088  00000-0  24457-4 0  9997
2 43924  86.3939  89.2284 0002411  88.4681 271.6791 14.34218737109247
IRIDIUM 173             
1 43925U 19002D   21042.55194488  .00000090  00000-0  24929-4 0  9997
2 43925  86.3935  89.2019 0002420  91.2711 268.8762 14.34218441109222
IRIDIUM 169             
1 43926U 19002E   21042.44774171  .00000088  00000-0  22319-4 0  9997
2 43926  86.4233 120.8548 0002847 293.9422  66.1478 14.38603702109626
IRIDIUM 172             
1 43927U 19002F   21042.54558899  .00000110  00000-0  32197-4 0  9997
2 43927  86.3936  89.2065 0002471  89.8130 270.3349 14.34215944109235
IRIDIUM 175             
1 43928U 19002G   21042.52809000  .00000150  00000-0  19837-4 0  9999
2 43928  86.6055  89.0982 0002818 105.4055 254.7474 14.72253161112091
IRIDIUM 171             
1 43929U 19002H   21042.52656434  .00000088  00000-0  24447-4 0  9994
2 43929  86.3944  89.3041 0002386  88.2016 271.9453 14.34219232109228
IRIDIUM 170             
1 43930U 19002J   21042.40454498  .00000154  00000-0  20485-4 0  9991
2 43930  86.6071  89.3119 0002664  95.0298 265.1223 14.72251775112096
IRIDIUM 167             
1 43931U 19002K   21042.52022362  .00000087  00000-0  23907-4 0  9993
2 43931  86.3936  89.2224 0002979  84.8023 275.3513 14.34219016109227
